{
  "type": "FeatureCollection",
  "features": [
    {
      "type": "Feature",
      "properties": {
        "norad_id": 34971,
        "name": "COSMOS 2251 DEB",
        "group": "cosmos-2251-debris",
        "lat": -10.821276078342306,
        "lon": -76.47003223228164,
        "alt_km": 758.619423273024,
        "timestamp": "2025-12-11T20:41:15.476667+00:00",
        "meta_object_name": "COSMOS 2251 DEB",
        "meta_object_id": "1993-036AFA",
        "meta_epoch": "2025-12-11T13:03:07.178112",
        "meta_mean_motion": 14.55631176,
        "meta_eccentricity": 0.00696698,
        "meta_inclination": 73.9786,
        "meta_ra_of_asc_node": 287.2832,
        "meta_arg_of_pericenter": 153.3092,
        "meta_mean_anomaly": 329.2446,
        "meta_ephemeris_type": 0,
        "meta_classification_type": "U",
        "meta_norad_cat_id": 34971,
        "meta_element_set_no": 999,
        "meta_rev_at_epoch": 66155,
        "meta_bstar": 0.00028423964,
        "meta_mean_motion_dot": 1.251e-05,
        "meta_mean_motion_ddot": 0,
        "tle_line1": "1 34971U 93036AFA 25345.54383308  .00001251  00000+0  28424-3 0  9999",
        "tle_line2": "2 34971  73.9786 287.2832 0069669 153.3092 329.2446 14.55631176661559"
      },
      "geometry": {
        "type": "Point",
        "coordinates": [
          -76.47003223228164,
          -10.821276078342306
        ]
      }
    },
    {
      "type": "Feature",
      "properties": {
        "norad_id": 34972,
        "name": "COSMOS 2251 DEB",
        "group": "cosmos-2251-debris",
        "lat": -4.209095942665399,
        "lon": -127.21658124753351,
        "alt_km": 633.8860013014028,
        "timestamp": "2025-12-11T20:41:15.476677+00:00",
        "meta_object_name": "COSMOS 2251 DEB",
        "meta_object_id": "1993-036AFB",
        "meta_epoch": "2025-12-11T15:39:21.883968",
        "meta_mean_motion": 14.72853144,
        "meta_eccentricity": 0.00337724,
        "meta_inclination": 73.9883,
        "meta_ra_of_asc_node": 51.9818,
        "meta_arg_of_pericenter": 211.2794,
        "meta_mean_anomaly": 302.0025,
        "meta_ephemeris_type": 0,
        "meta_classification_type": "U",
        "meta_norad_cat_id": 34972,
        "meta_element_set_no": 999,
        "meta_rev_at_epoch": 87634,
        "meta_bstar": 0.0021673296,
        "meta_mean_motion_dot": 0.00013997,
        "meta_mean_motion_ddot": 0,
        "tle_line1": "1 34972U 93036AFB 25345.65233662  .00013997  00000+0  21673-2 0  9997",
        "tle_line2": "2 34972  73.9883  51.9818 0033772 211.2794 302.0025 14.72853144876344"
      },
      "geometry": {
        "type": "Point",
        "coordinates": [
          -127.21658124753351,
          -4.209095942665399
        ]
      }
    },
    {
      "type": "Feature",
      "properties": {
        "norad_id": 34976,
        "name": "COSMOS 2251 DEB",
        "group": "cosmos-2251-debris",
        "lat": -73.55512150511044,
        "lon": -156.4705614954515,
        "alt_km": 646.452549047488,
        "timestamp": "2025-12-11T20:41:15.476686+00:00",
        "meta_object_name": "COSMOS 2251 DEB",
        "meta_object_id": "1993-036AFF",
        "meta_epoch": "2025-12-11T08:48:42.689664",
        "meta_mean_motion": 14.76521154,
        "meta_eccentricity": 0.0047828,
        "meta_inclination": 74.0577,
        "meta_ra_of_asc_node": 308.9334,
        "meta_arg_of_pericenter": 356.0129,
        "meta_mean_anomaly": 161.3344,
        "meta_ephemeris_type": 0,
        "meta_classification_type": "U",
        "meta_norad_cat_id": 34976,
        "meta_element_set_no": 999,
        "meta_rev_at_epoch": 88253,
        "meta_bstar": 0.003050771,
        "meta_mean_motion_dot": 0.00021704,
        "meta_mean_motion_ddot": 0,
        "tle_line1": "1 34976U 93036AFF 25345.36716076  .00021704  00000+0  30508-2 0  9996",
        "tle_line2": "2 34976  74.0577 308.9334 0047828 356.0129 161.3344 14.76521154882530"
      },
      "geometry": {
        "type": "Point",
        "coordinates": [
          -156.4705614954515,
          -73.55512150511044
        ]
      }
    },
    {
      "type": "Feature",
      "properties": {
        "norad_id": 34979,
        "name": "COSMOS 2251 DEB",
        "group": "cosmos-2251-debris",
        "lat": -51.36739587473183,
        "lon": -111.99231079394488,
        "alt_km": 612.1281255932499,
        "timestamp": "2025-12-11T20:41:15.476696+00:00",
        "meta_object_name": "COSMOS 2251 DEB",
        "meta_object_id": "1993-036AFJ",
        "meta_epoch": "2025-12-11T11:11:32.589024",
        "meta_mean_motion": 14.7931679,
        "meta_eccentricity": 0.00490437,
        "meta_inclination": 74.0395,
        "meta_ra_of_asc_node": 269.7685,
        "meta_arg_of_pericenter": 347.9199,
        "meta_mean_anomaly": 12.0796,
        "meta_ephemeris_type": 0,
        "meta_classification_type": "U",
        "meta_norad_cat_id": 34979,
        "meta_element_set_no": 999,
        "meta_rev_at_epoch": 88201,
        "meta_bstar": 0.0026514849,
        "meta_mean_motion_dot": 0.00020168,
        "meta_mean_motion_ddot": 0,
        "tle_line1": "1 34979U 93036AFJ 25345.46634941  .00020168  00000+0  26515-2 0  9996",
        "tle_line2": "2 34979  74.0395 269.7685 0049043 347.9199  12.0796 14.79316790882018"
      },
      "geometry": {
        "type": "Point",
        "coordinates": [
          -111.99231079394488,
          -51.36739587473183
        ]
      }
    },
    {
      "type": "Feature",
      "properties": {
        "norad_id": 34990,
        "name": "COSMOS 2251 DEB",
        "group": "cosmos-2251-debris",
        "lat": 12.59856390803411,
        "lon": 69.2976828550582,
        "alt_km": 761.6030584145956,
        "timestamp": "2025-12-11T20:41:15.476706+00:00",
        "meta_object_name": "COSMOS 2251 DEB",
        "meta_object_id": "1993-036AFN",
        "meta_epoch": "2025-12-11T11:35:34.713024",
        "meta_mean_motion": 14.42369611,
        "meta_eccentricity": 0.001637,
        "meta_inclination": 74.0455,
        "meta_ra_of_asc_node": 253.6657,
        "meta_arg_of_pericenter": 317.4187,
        "meta_mean_anomaly": 42.5699,
        "meta_ephemeris_type": 0,
        "meta_classification_type": "U",
        "meta_norad_cat_id": 34990,
        "meta_element_set_no": 999,
        "meta_rev_at_epoch": 87328,
        "meta_bstar": 0.00064071244,
        "meta_mean_motion_dot": 2.095e-05,
        "meta_mean_motion_ddot": 0,
        "tle_line1": "1 34990U 93036AFN 25345.48304066  .00002095  00000+0  64071-3 0  9992",
        "tle_line2": "2 34990  74.0455 253.6657 0016370 317.4187  42.5699 14.42369611873284"
      },
      "geometry": {
        "type": "Point",
        "coordinates": [
          69.2976828550582,
          12.59856390803411
        ]
      }
    },
    {
      "type": "Feature",
      "properties": {
        "norad_id": 34997,
        "name": "COSMOS 2251 DEB",
        "group": "cosmos-2251-debris",
        "lat": -35.41085233229267,
        "lon": -59.012942343408305,
        "alt_km": 688.8847703642932,
        "timestamp": "2025-12-11T20:41:15.476715+00:00",
        "meta_object_name": "COSMOS 2251 DEB",
        "meta_object_id": "1993-036AFV",
        "meta_epoch": "2025-12-09T15:42:21.613248",
        "meta_mean_motion": 14.45493879,
        "meta_eccentricity": 0.00979027,
        "meta_inclination": 73.8812,
        "meta_ra_of_asc_node": 317.0047,
        "meta_arg_of_pericenter": 292.5764,
        "meta_mean_anomaly": 66.5057,
        "meta_ephemeris_type": 0,
        "meta_classification_type": "U",
        "meta_norad_cat_id": 34997,
        "meta_element_set_no": 999,
        "meta_rev_at_epoch": 70702,
        "meta_bstar": 0.002944294,
        "meta_mean_motion_dot": 0.00010999,
        "meta_mean_motion_ddot": 0,
        "tle_line1": "1 34997U 93036AFV 25343.65441682  .00010999  00000+0  29443-2 0  9997",
        "tle_line2": "2 34997  73.8812 317.0047 0097902 292.5764  66.5057 14.45493879707026"
      },
      "geometry": {
        "type": "Point",
        "coordinates": [
          -59.012942343408305,
          -35.41085233229267
        ]
      }
    },
    {
      "type": "Feature",
      "properties": {
        "norad_id": 34998,
        "name": "COSMOS 2251 DEB",
        "group": "cosmos-2251-debris",
        "lat": -9.345056401239653,
        "lon": -15.661116621067794,
        "alt_km": 738.723226037574,
        "timestamp": "2025-12-11T20:41:15.476725+00:00",
        "meta_object_name": "COSMOS 2251 DEB",
        "meta_object_id": "1993-036AFW",
        "meta_epoch": "2025-12-11T11:38:01.102272",
        "meta_mean_motion": 14.49272641,
        "meta_eccentricity": 0.0021085,
        "meta_inclination": 74.0105,
        "meta_ra_of_asc_node": 162.3427,
        "meta_arg_of_pericenter": 308.1375,
        "meta_mean_anomaly": 74.2279,
        "meta_ephemeris_type": 0,
        "meta_classification_type": "U",
        "meta_norad_cat_id": 34998,
        "meta_element_set_no": 999,
        "meta_rev_at_epoch": 87402,
        "meta_bstar": 0.00093199294,
        "meta_mean_motion_dot": 3.538e-05,
        "meta_mean_motion_ddot": 0,
        "tle_line1": "1 34998U 93036AFW 25345.48473498  .00003538  00000+0  93199-3 0  9992",
        "tle_line2": "2 34998  74.0105 162.3427 0021085 308.1375  74.2279 14.49272641874022"
      },
      "geometry": {
        "type": "Point",
        "coordinates": [
          -15.661116621067794,
          -9.345056401239653
        ]
      }
    }
  ]
}